{
    "links": {
        "self": "http://www.neowsapp.com/rest/v1/neo/54016532?api_key=iIulBulltgU6a56xZRHN4H3l9WmuAYTsLGpBGhQ2"
    },
    "id": "54016532",
    "neo_reference_id": "54016532",
    "name": "(2020 GD3)",
    "designation": "2020 GD3",
    "nasa_jpl_url": "http://ssd.jpl.nasa.gov/sbdb.cgi?sstr=54016532",
    "absolute_magnitude_h": 27.223,
    "estimated_diameter": {
        "kilometers": {
            "estimated_diameter_min": 0.0095489359,
            "estimated_diameter_max": 0.0213520697
        },
        "meters": {
            "estimated_diameter_min": 9.5489358689,
            "estimated_diameter_max": 21.3520697156
        },
        "miles": {
            "estimated_diameter_min": 0.0059334318,
            "estimated_diameter_max": 0.0132675569
        },
        "feet": {
            "estimated_diameter_min": 31.328530756,
            "estimated_diameter_max": 70.0527244056
        }
    },
    "is_potentially_hazardous_asteroid": false,
    "close_approach_data": [
        {
            "close_approach_date": "2018-06-12",
            "close_approach_date_full": "2018-Jun-12 07:10",
            "epoch_date_close_approach": 1528787400000,
            "relative_velocity": {
                "kilometers_per_second": "17.9523957814",
                "kilometers_per_hour": "64628.6248130634",
                "miles_per_hour": "40157.7141234282"
            },
            "miss_distance": {
                "astronomical": "0.4823728434",
                "lunar": "187.6430360826",
                "kilometers": "72161949.918483558",
                "miles": "44839356.4507587804"
            },
            "orbiting_body": "Earth"
        },
        {
            "close_approach_date": "2020-04-17",
            "close_approach_date_full": "2020-Apr-17 02:07",
            "epoch_date_close_approach": 1587089220000,
            "relative_velocity": {
                "kilometers_per_second": "5.4067665366",
                "kilometers_per_hour": "19464.3595316945",
                "miles_per_hour": "12094.3960656798"
            },
            "miss_distance": {
                "astronomical": "0.038606912",
                "lunar": "15.018088768",
                "kilometers": "5775511.80247744",
                "miles": "3588736.622131072"
            },
            "orbiting_body": "Earth"
        }
    ],
    "orbital_data": {
        "orbit_id": "1",
        "orbit_determination_date": "2020-04-17 03:42:11",
        "first_observation_date": "2020-04-15",
        "last_observation_date": "2020-04-17",
        "data_arc_in_days": 2,
        "observations_used": 19,
        "orbit_uncertainty": "8",
        "minimum_orbit_intersection": ".0364847",
        "jupiter_tisserand_invariant": "4.394",
        "epoch_osculation": "2458955.5",
        "eccentricity": ".3257416275711997",
        "semi_major_axis": "1.543814366967909",
        "inclination": "6.542818613731039",
        "ascending_node_longitude": "29.01280935015133",
        "orbital_period": "700.6337346092954",
        "perihelion_distance": "1.040929762403981",
        "perihelion_argument": "178.8648322731076",
        "aphelion_distance": "2.046698971531837",
        "perihelion_time": "2458956.621051980635",
        "mean_anomaly": "359.4239804721169",
        "mean_motion": ".513820534491894",
        "equinox": "J2000",
        "orbit_class": {
            "orbit_class_type": "AMO",
            "orbit_class_description": "Near-Earth asteroid orbits similar to that of 1221 Amor",
            "orbit_class_range": "1.017 AU < q (perihelion) < 1.3 AU"
        }
    },
    "is_sentry_object": false
}